     2.10           N: GPS NAV DATA                         RINEX VERSION / TYPE
teqc  2009Mar23                         20140521 00:19:16UTCPGM / RUN BY / DATE
    16                                                      LEAP SECONDS
Linux 2.4.20-8|Pentium IV|gcc -static|Linux|486/DX+         COMMENT
teqc  2009Mar23                         20140520 01:05:03UTCCOMMENT
                                                            END OF HEADER
11 14  5 21  0  0  0.0-4.906090907753D-04-3.069544618484D-12 0.000000000000D+00
    8.700000000000D+01-5.700000000000D+01 6.362050719235D-09 3.919626502005D-01
   -2.730637788773D-06 1.493046956602D-02 9.357929229736D-06 5.153702272415D+03
    2.592000000000D+05-2.086162567139D-07-1.893956336369D+00 3.166496753693D-08
    8.902882939553D-01 1.648750000000D+02 1.285495694993D+00-9.143952310888D-09
   -1.446488823494D-10 1.000000000000D+00 1.793000000000D+03 0.000000000000D+00
    2.000000000000D+00 0.000000000000D+00-1.210719347000D-08 8.700000000000D+01
    2.546700000000D+05 4.000000000000D+00
15 14  5 21  0  0  0.0-1.806388609111D-04-2.160049916711D-12 0.000000000000D+00
    9.900000000000D+01 9.375000000000D-01 5.150571684842D-09 2.294905113015D+00
    1.862645149231D-08 6.269119796343D-03 7.130205631256D-06 5.153689783096D+03
    2.592000000000D+05-1.098960638046D-07 4.818770068773D-01 3.911554813385D-08
    9.370852731801D-01 2.297812500000D+02 2.741765822466D-01-8.401064223760D-09
   -3.360854278785D-10 1.000000000000D+00 1.793000000000D+03 0.000000000000D+00
    2.000000000000D+00 0.000000000000D+00-1.024454832077D-08 9.900000000000D+01
    2.546700000000D+05 4.000000000000D+00
17 14  5 21  0  0  0.0-9.478908032179D-05-3.069544618484D-12 0.000000000000D+00
    1.700000000000D+01-7.743750000000D+01 4.504116185947D-09 2.981708813809D+00
   -4.004687070847D-06 9.302909485996D-03 6.467103958130D-06 5.153596084595D+03
    2.592000000000D+05-5.587935447693D-09-2.579833328299D+00-2.328306436539D-07
    9.687479918309D-01 2.553125000000D+02-2.100360619970D+00-8.006047769739D-09
   -1.867934949846D-10 1.000000000000D+00 1.793000000000D+03 0.000000000000D+00
    2.000000000000D+00 0.000000000000D+00-1.024454832077D-08 1.700000000000D+01
    2.546700000000D+05 4.000000000000D+00
19 14  5 21  0  0  0.0-4.580337554216D-04-2.160049916711D-12 0.000000000000D+00
    9.400000000000D+01-8.678125000000D+01 4.657336853917D-09 2.200118049782D+00
   -4.466623067856D-06 1.032451691572D-02 6.845220923424D-06 5.153617343903D+03
    2.592000000000D+05-2.104789018631D-07-2.529013935856D+00 3.725290298462D-09
    9.658426409142D-01 2.541250000000D+02 4.306583328882D-01-8.161411384115D-09
   -1.528635102359D-10 1.000000000000D+00 1.793000000000D+03 0.000000000000D+00
    2.000000000000D+00 0.000000000000D+00-1.490116119385D-08 9.400000000000D+01
    2.546700000000D+05 4.000000000000D+00
26 14  5 21  0  0  0.0 7.246481254697D-05-1.170974428533D-11 0.000000000000D+00
    3.800000000000D+01-4.468750000000D+00 4.135529404256D-09 1.751687386388D+00
   -5.923211574554D-07 2.137099206448D-02 7.834285497665D-06 5.153692405701D+03
    2.592000000000D+05-1.005828380585D-07 6.167264810877D-01-4.768371582031D-07
    9.752780455938D-01 2.370312500000D+02 1.283040055334D+00-7.914972547519D-09
   -2.821546100149D-10 1.000000000000D+00 1.793000000000D+03 0.000000000000D+00
    2.000000000000D+00 0.000000000000D+00-6.053596735001D-09 3.800000000000D+01
    2.546700000000D+05 4.000000000000D+00
28 14  5 20 23 59 44.0 3.562984056771D-04 2.842170943040D-12 0.000000000000D+00
    5.000000000000D+00 1.653125000000D+01 4.069812381164D-09-2.464675130812D+00
    8.884817361832D-07 1.912223699037D-02 4.749745130539D-06 5.153674629211D+03
    2.591840000000D+05 2.421438694000D-07 2.677562381232D+00 1.769512891769D-07
    9.867856986024D-01 2.952187500000D+02-1.715010750087D+00-7.762823352752D-09
    3.907305612105D-10 1.000000000000D+00 1.793000000000D+03 0.000000000000D+00
    2.000000000000D+00 0.000000000000D+00-1.071020960808D-08 5.000000000000D+00
    2.546700000000D+05 4.000000000000D+00
30 14  5 20 23 59 44.0-1.379987224936D-05-5.343281372916D-12 0.000000000000D+00
    2.500000000000D+01 3.562500000000D+01 4.344823836495D-09 5.138770129945D-01
    1.931563019753D-06 6.829375633970D-04 8.635222911835D-06 5.153705842972D+03
    2.591840000000D+05 1.676380634308D-08 1.644690304159D+00-1.862645149231D-09
    9.588566950644D-01 2.123750000000D+02 2.687841829664D+00-8.077479316579D-09
    1.078616357272D-10 1.000000000000D+00 1.793000000000D+03 0.000000000000D+00
    2.000000000000D+00 6.300000000000D+01 3.259629011154D-09 2.500000000000D+01
    2.546700000000D+05 4.000000000000D+00
 3 14  5 21  0  0  0.0 3.675138577819D-04 5.229594535194D-12 0.000000000000D+00
    5.600000000000D+01-7.293750000000D+01 5.380938423398D-09 1.594025673819D+00
   -4.129484295845D-06 1.699198572896D-02 5.017966032028D-06 5.153794654846D+03
    2.592000000000D+05-1.173466444016D-07-2.774334618447D+00-3.781169652939D-07
    9.385031246051D-01 2.751250000000D+02 1.383343405211D+00-8.630716646848D-09
   -6.178828801592D-11 1.000000000000D+00 1.793000000000D+03 0.000000000000D+00
    2.800000000000D+00 0.000000000000D+00-4.656612873077D-09 5.600000000000D+01
    2.546700000000D+05 4.000000000000D+00
18 14  5 21  0  0  0.0 3.204983659089D-04 2.387423592154D-12 0.000000000000D+00
    1.000000000000D+02 4.453125000000D+01 5.458084493985D-09-1.704831499841D+00
    2.315267920494D-06 1.527903019451D-02 6.677582859993D-06 5.153687742233D+03
    2.592000000000D+05 4.284083843231D-07-5.370303409436D-01-2.048909664154D-08
    9.259359078272D-01 2.314687500000D+02-2.039041593833D+00-8.382849179316D-09
    1.146476326769D-10 1.000000000000D+00 1.793000000000D+03 0.000000000000D+00
    2.000000000000D+00 0.000000000000D+00-1.117587089539D-08 1.000000000000D+02
    2.532900000000D+05 4.000000000000D+00
22 14  5 21  0  0  0.0 2.357307821512D-04 2.955857780762D-12 0.000000000000D+00
    5.300000000000D+01 3.968750000000D+01 5.469513541479D-09-2.262249156375D+00
    2.004206180573D-06 7.223684224300D-03 7.027760148048D-06 5.153720941544D+03
    2.592000000000D+05 6.705522537231D-08-5.351339441453D-01-1.210719347000D-07
    9.237119856148D-01 2.247187500000D+02-2.059557747156D+00-8.398564119621D-09
    1.603638226540D-10 1.000000000000D+00 1.793000000000D+03 0.000000000000D+00
    2.000000000000D+00 0.000000000000D+00-1.722946763039D-08 5.300000000000D+01
    2.550900000000D+05 4.000000000000D+00
27 14  5 21  0  0  0.0-1.533841714263D-05 2.046363078989D-12 0.000000000000D+00
    8.600000000000D+01-7.700000000000D+01 4.751269338011D-09 3.047775061779D+00
   -3.967434167862D-06 1.231144298799D-03 6.122514605522D-06 5.153674558640D+03
    2.592000000000D+05-7.450580596924D-09-2.625320382880D+00 3.166496753693D-08
    9.635130521289D-01 2.636250000000D+02 1.388451672300D-01-8.252486606335D-09
   -1.314340461842D-10 1.000000000000D+00 1.793000000000D+03 0.000000000000D+00
    2.000000000000D+00 0.000000000000D+00 1.862645149231D-09 8.600000000000D+01
    2.525400000000D+05 4.000000000000D+00
24 14  5 21  0  0  0.0-2.870289608836D-05-6.821210263297D-13 0.000000000000D+00
    2.600000000000D+01 4.468750000000D+01 4.448756737146D-09 1.035040686353D+00
    2.123415470123D-06 2.082175225951D-03 9.395182132721D-06 5.153736486435D+03
    2.592000000000D+05 7.450580596924D-09 1.555535494549D+00 3.166496753693D-08
    9.566684651273D-01 1.975937500000D+02 3.464379444967D-01-8.085336786731D-09
    6.785996949726D-12 1.000000000000D+00 1.793000000000D+03 0.000000000000D+00
    2.000000000000D+00 0.000000000000D+00 2.793967723846D-09 2.600000000000D+01
    2.574000000000D+05 4.000000000000D+00
 4 14  5 21  0  0  0.0 6.921123713255D-06 1.136868377216D-13 0.000000000000D+00
    4.400000000000D+01-1.840625000000D+01 4.954134931034D-09-1.454433695687D+00
   -9.313225746155D-07 1.055725058541D-02 1.030787825584D-05 5.153736066818D+03
    2.592000000000D+05 2.309679985046D-07-1.583799952517D+00 1.601874828339D-07
    9.380973945162D-01 1.679687500000D+02 1.097836513663D+00-8.150696652089D-09
   -2.107230631757D-11 1.000000000000D+00 1.793000000000D+03 0.000000000000D+00
    2.000000000000D+00 0.000000000000D+00-6.519258022308D-09 4.400000000000D+01
    2.590800000000D+05 4.000000000000D+00
